CCSDS_OMM_VERS = 2.0
CREATION_DATE  = 
ORIGINATOR     = 

OBJECT_NAME    = STARLINK-36948
OBJECT_ID      = 2026-053C
CENTER_NAME    = EARTH
REF_FRAME      = TEME
TIME_SYSTEM    = UTC
MEAN_ELEMENT_THEORY = SGP/SGP4

EPOCH          = 2026-04-04T19:29:31.243488
MEAN_MOTION    = 15.80784464
ECCENTRICITY   = .000179
INCLINATION    = 97.2838
RA_OF_ASC_NODE = 330.4039
ARG_OF_PERICENTER = 121.7319
MEAN_ANOMALY   = 238.4124

EPHEMERIS_TYPE = 0
CLASSIFICATION_TYPE = U
NORAD_CAT_ID   = 68209
ELEMENT_SET_NO = 999
REV_AT_EPOCH   = 416
BSTAR          = .39237E-3
MEAN_MOTION_DOT = .75563E-3
MEAN_MOTION_DDOT = 0

CCSDS_OMM_VERS = 2.0
CREATION_DATE  = 
ORIGINATOR     = 

OBJECT_NAME    = STARLINK-37119
OBJECT_ID      = 2026-053D
CENTER_NAME    = EARTH
REF_FRAME      = TEME
TIME_SYSTEM    = UTC
MEAN_ELEMENT_THEORY = SGP/SGP4

EPOCH          = 2026-04-04T19:28:26.268960
MEAN_MOTION    = 15.80791060
ECCENTRICITY   = .0001348
INCLINATION    = 97.2844
RA_OF_ASC_NODE = 330.4038
ARG_OF_PERICENTER = 99.3319
MEAN_ANOMALY   = 260.8101

EPHEMERIS_TYPE = 0
CLASSIFICATION_TYPE = U
NORAD_CAT_ID   = 68210
ELEMENT_SET_NO = 999
REV_AT_EPOCH   = 418
BSTAR          = .48783E-3
MEAN_MOTION_DOT = .94208E-3
MEAN_MOTION_DDOT = 0

CCSDS_OMM_VERS = 2.0
CREATION_DATE  = 
ORIGINATOR     = 

OBJECT_NAME    = STARLINK-37120
OBJECT_ID      = 2026-053E
CENTER_NAME    = EARTH
REF_FRAME      = TEME
TIME_SYSTEM    = UTC
MEAN_ELEMENT_THEORY = SGP/SGP4

EPOCH          = 2026-04-04T19:27:21.392064
MEAN_MOTION    = 15.80766132
ECCENTRICITY   = .0001309
INCLINATION    = 97.2839
RA_OF_ASC_NODE = 330.4039
ARG_OF_PERICENTER = 77.0201
MEAN_ANOMALY   = 283.1213

EPHEMERIS_TYPE = 0
CLASSIFICATION_TYPE = U
NORAD_CAT_ID   = 68211
ELEMENT_SET_NO = 999
REV_AT_EPOCH   = 416
BSTAR          = .16311E-3
MEAN_MOTION_DOT = .31142E-3
MEAN_MOTION_DDOT = 0

CCSDS_OMM_VERS = 2.0
CREATION_DATE  = 
ORIGINATOR     = 

OBJECT_NAME    = STARLINK-37117
OBJECT_ID      = 2026-053F
CENTER_NAME    = EARTH
REF_FRAME      = TEME
TIME_SYSTEM    = UTC
MEAN_ELEMENT_THEORY = SGP/SGP4

EPOCH          = 2026-04-04T19:26:16.142784
MEAN_MOTION    = 15.80774005
ECCENTRICITY   = .0002542
INCLINATION    = 97.2828
RA_OF_ASC_NODE = 330.4061
ARG_OF_PERICENTER = 130.6032
MEAN_ANOMALY   = 229.5458

EPHEMERIS_TYPE = 0
CLASSIFICATION_TYPE = U
NORAD_CAT_ID   = 68212
ELEMENT_SET_NO = 999
REV_AT_EPOCH   = 418
BSTAR          = .947E-4
MEAN_MOTION_DOT = .18003E-3
MEAN_MOTION_DDOT = 0

CCSDS_OMM_VERS = 2.0
CREATION_DATE  = 
ORIGINATOR     = 

OBJECT_NAME    = STARLINK-37116
OBJECT_ID      = 2026-053G
CENTER_NAME    = EARTH
REF_FRAME      = TEME
TIME_SYSTEM    = UTC
MEAN_ELEMENT_THEORY = SGP/SGP4

EPOCH          = 2026-04-04T19:25:11.735904
MEAN_MOTION    = 15.80793344
ECCENTRICITY   = .0002296
INCLINATION    = 97.2837
RA_OF_ASC_NODE = 330.4073
ARG_OF_PERICENTER = 113.1160
MEAN_ANOMALY   = 247.0350

EPHEMERIS_TYPE = 0
CLASSIFICATION_TYPE = U
NORAD_CAT_ID   = 68213
ELEMENT_SET_NO = 999
REV_AT_EPOCH   = 418
BSTAR          = .63813E-3
MEAN_MOTION_DOT = .123719E-2
MEAN_MOTION_DDOT = 0

CCSDS_OMM_VERS = 2.0
CREATION_DATE  = 
ORIGINATOR     = 

OBJECT_NAME    = STARLINK-35854
OBJECT_ID      = 2026-053H
CENTER_NAME    = EARTH
REF_FRAME      = TEME
TIME_SYSTEM    = UTC
MEAN_ELEMENT_THEORY = SGP/SGP4

EPOCH          = 2026-04-04T20:55:16.467168
MEAN_MOTION    = 15.80740732
ECCENTRICITY   = .0001532
INCLINATION    = 97.2838
RA_OF_ASC_NODE = 330.4739
ARG_OF_PERICENTER = 122.7892
MEAN_ANOMALY   = 237.3524

EPHEMERIS_TYPE = 0
CLASSIFICATION_TYPE = U
NORAD_CAT_ID   = 68214
ELEMENT_SET_NO = 999
REV_AT_EPOCH   = 417
BSTAR          = .36302E-3
MEAN_MOTION_DOT = .69713E-3
MEAN_MOTION_DDOT = 0

CCSDS_OMM_VERS = 2.0
CREATION_DATE  = 
ORIGINATOR     = 

OBJECT_NAME    = STARLINK-36272
OBJECT_ID      = 2026-053J
CENTER_NAME    = EARTH
REF_FRAME      = TEME
TIME_SYSTEM    = UTC
MEAN_ELEMENT_THEORY = SGP/SGP4

EPOCH          = 2026-04-04T20:00:01.999008
MEAN_MOTION    = 15.68959311
ECCENTRICITY   = .0001543
INCLINATION    = 97.2840
RA_OF_ASC_NODE = 330.4103
ARG_OF_PERICENTER = 86.9849
MEAN_ANOMALY   = 358.8023

EPHEMERIS_TYPE = 0
CLASSIFICATION_TYPE = U
NORAD_CAT_ID   = 68215
ELEMENT_SET_NO = 999
REV_AT_EPOCH   = 410
BSTAR          = -.19858E-1
MEAN_MOTION_DOT = -.2009737E-1
MEAN_MOTION_DDOT = 0

CCSDS_OMM_VERS = 2.0
CREATION_DATE  = 
ORIGINATOR     = 

OBJECT_NAME    = STARLINK-37014
OBJECT_ID      = 2026-053K
CENTER_NAME    = EARTH
REF_FRAME      = TEME
TIME_SYSTEM    = UTC
MEAN_ELEMENT_THEORY = SGP/SGP4

EPOCH          = 2026-04-04T19:21:56.693952
MEAN_MOTION    = 15.80810528
ECCENTRICITY   = .0002187
INCLINATION    = 97.2836
RA_OF_ASC_NODE = 330.4094
ARG_OF_PERICENTER = 134.0496
MEAN_ANOMALY   = 226.0952

EPHEMERIS_TYPE = 0
CLASSIFICATION_TYPE = U
NORAD_CAT_ID   = 68216
ELEMENT_SET_NO = 999
REV_AT_EPOCH   = 418
BSTAR          = .73297E-3
MEAN_MOTION_DOT = .142546E-2
MEAN_MOTION_DDOT = 0

CCSDS_OMM_VERS = 2.0
CREATION_DATE  = 
ORIGINATOR     = 

OBJECT_NAME    = STARLINK-37011
OBJECT_ID      = 2026-053L
CENTER_NAME    = EARTH
REF_FRAME      = TEME
TIME_SYSTEM    = UTC
MEAN_ELEMENT_THEORY = SGP/SGP4

EPOCH          = 2026-04-04T19:20:52.047744
MEAN_MOTION    = 15.80735564
ECCENTRICITY   = .0001925
INCLINATION    = 97.2834
RA_OF_ASC_NODE = 330.4110
ARG_OF_PERICENTER = 70.7534
MEAN_ANOMALY   = 289.3942

EPHEMERIS_TYPE = 0
CLASSIFICATION_TYPE = U
NORAD_CAT_ID   = 68217
ELEMENT_SET_NO = 999
REV_AT_EPOCH   = 418
BSTAR          = -.15498E-3
MEAN_MOTION_DOT = -.29622E-3
MEAN_MOTION_DDOT = 0

CCSDS_OMM_VERS = 2.0
CREATION_DATE  = 
ORIGINATOR     = 

OBJECT_NAME    = STARLINK-37108
OBJECT_ID      = 2026-053M
CENTER_NAME    = EARTH
REF_FRAME      = TEME
TIME_SYSTEM    = UTC
MEAN_ELEMENT_THEORY = SGP/SGP4

EPOCH          = 2026-04-04T19:19:46.917696
MEAN_MOTION    = 15.80768730
ECCENTRICITY   = .0001426
INCLINATION    = 97.2836
RA_OF_ASC_NODE = 330.4123
ARG_OF_PERICENTER = 103.7289
MEAN_ANOMALY   = 256.4138

EPHEMERIS_TYPE = 0
CLASSIFICATION_TYPE = U
NORAD_CAT_ID   = 68218
ELEMENT_SET_NO = 999
REV_AT_EPOCH   = 418
BSTAR          = .2716E-3
MEAN_MOTION_DOT = .52081E-3
MEAN_MOTION_DDOT = 0

CCSDS_OMM_VERS = 2.0
CREATION_DATE  = 
ORIGINATOR     = 

OBJECT_NAME    = STARLINK-37106
OBJECT_ID      = 2026-053N
CENTER_NAME    = EARTH
REF_FRAME      = TEME
TIME_SYSTEM    = UTC
MEAN_ELEMENT_THEORY = SGP/SGP4

EPOCH          = 2026-04-04T19:18:42.048576
MEAN_MOTION    = 15.80770918
ECCENTRICITY   = .0001689
INCLINATION    = 97.2835
RA_OF_ASC_NODE = 330.4134
ARG_OF_PERICENTER = 68.6855
MEAN_ANOMALY   = 291.4593

EPHEMERIS_TYPE = 0
CLASSIFICATION_TYPE = U
NORAD_CAT_ID   = 68219
ELEMENT_SET_NO = 999
REV_AT_EPOCH   = 418
BSTAR          = .26951E-3
MEAN_MOTION_DOT = .51683E-3
MEAN_MOTION_DDOT = 0

CCSDS_OMM_VERS = 2.0
CREATION_DATE  = 
ORIGINATOR     = 

OBJECT_NAME    = STARLINK-37030
OBJECT_ID      = 2026-053P
CENTER_NAME    = EARTH
REF_FRAME      = TEME
TIME_SYSTEM    = UTC
MEAN_ELEMENT_THEORY = SGP/SGP4

EPOCH          = 2026-04-04T19:16:32.083104
MEAN_MOTION    = 15.80771189
ECCENTRICITY   = .0001803
INCLINATION    = 97.2835
RA_OF_ASC_NODE = 330.4147
ARG_OF_PERICENTER = 88.4540
MEAN_ANOMALY   = 271.6935

EPHEMERIS_TYPE = 0
CLASSIFICATION_TYPE = U
NORAD_CAT_ID   = 68220
ELEMENT_SET_NO = 999
REV_AT_EPOCH   = 418
BSTAR          = .20432E-3
MEAN_MOTION_DOT = .39093E-3
MEAN_MOTION_DDOT = 0

