STARLINK-36948          
1 68209U 26053C   26094.81216717  .00075563  00000+0  39237-3 0  9997
2 68209  97.2838 330.4039 0001790 121.7319 238.4124 15.80784464  4169
STARLINK-37119          
1 68210U 26053D   26094.81141515  .00094208  00000+0  48783-3 0  9995
2 68210  97.2844 330.4038 0001348  99.3319 260.8101 15.80791060  4182
STARLINK-37120          
1 68211U 26053E   26094.81066426  .00031142  00000+0  16311-3 0  9993
2 68211  97.2839 330.4039 0001309  77.0201 283.1213 15.80766132  4160
STARLINK-37117          
1 68212U 26053F   26094.80990906  .00018003  00000+0  94700-4 0  9992
2 68212  97.2828 330.4061 0002542 130.6032 229.5458 15.80774005  4187
STARLINK-37116          
1 68213U 26053G   26094.80916361  .00123719  00000+0  63813-3 0  9997
2 68213  97.2837 330.4073 0002296 113.1160 247.0350 15.80793344  4188
STARLINK-35854          
1 68214U 26053H   26094.87171837  .00069713  00000+0  36302-3 0  9992
2 68214  97.2838 330.4739 0001532 122.7892 237.3524 15.80740732  4176
STARLINK-36272          
1 68215U 26053J   26094.83335647 -.02009737  00000+0 -19858-1 0  9999
2 68215  97.2840 330.4103 0001543  86.9849 358.8023 15.68959311  4107
STARLINK-37014          
1 68216U 26053K   26094.80690618  .00142546  00000+0  73297-3 0  9990
2 68216  97.2836 330.4094 0002187 134.0496 226.0952 15.80810528  4185
STARLINK-37011          
1 68217U 26053L   26094.80615796 -.00029622  00000+0 -15498-3 0  9995
2 68217  97.2834 330.4110 0001925  70.7534 289.3942 15.80735564  4188
STARLINK-37108          
1 68218U 26053M   26094.80540414  .00052081  00000+0  27160-3 0  9992
2 68218  97.2836 330.4123 0001426 103.7289 256.4138 15.80768730  4188
STARLINK-37106          
1 68219U 26053N   26094.80465334  .00051683  00000+0  26951-3 0  9994
2 68219  97.2835 330.4134 0001689  68.6855 291.4593 15.80770918  4184
STARLINK-37030          
1 68220U 26053P   26094.80314911  .00039093  00000+0  20432-3 0  9999
2 68220  97.2835 330.4147 0001803  88.4540 271.6935 15.80771189  4180
